
# Worst residual: 42.21 km
# MJD 60281.000000 (2023 Dec  3  0:00)
2008-051A = TR93D0F = IBEX = NORAD 33401
1 33401U 08051A   23337.49919926  .00000000  00000-0  00000-0 0 18161
2 33401 049.2753 029.6398 6101192 041.4638 049.9620 00.10878648    08

# Worst residual: 15.18 km
# MJD 60282.000000 (2023 Dec  4  0:00)
2008-051A = TR93D0F = IBEX = NORAD 33401
1 33401U 08051A   23338.49919926  .00000000  00000-0  00000-0 0 18162
2 33401 049.2762 029.6179 6093292 041.1174 090.0527 00.10984639    09

# Worst residual: 8.00 km
# MJD 60283.000000 (2023 Dec  5  0:00)
2008-051A = TR93D0F = IBEX = NORAD 33401
1 33401U 08051A   23339.49919926  .00000000  00000-0  00000-0 0 18163
2 33401 049.2686 029.5832 6094235 041.0186 129.9715 00.11013410    01

# Worst residual: 9.73 km
# MJD 60284.000000 (2023 Dec  6  0:00)
2008-051A = TR93D0F = IBEX = NORAD 33401
1 33401U 08051A   23340.49919926  .00000000  00000-0  00000-0 0 18165
2 33401 049.2423 029.5298 6089068 041.0100 169.8314 00.11015454    08

# Worst residual: 13.15 km
# MJD 60285.000000 (2023 Dec  7  0:00)
2008-051A = TR93D0F = IBEX = NORAD 33401
1 33401U 08051A   23341.49919926  .00000000  00000-0  00000-0 0 18166
2 33401 049.2130 029.4625 6079432 040.9508 209.8131 00.11001629    01

# Worst residual: 23.92 km
# MJD 60286.000000 (2023 Dec  8  0:00)
2008-051A = TR93D0F = IBEX = NORAD 33401
1 33401U 08051A   23342.49919926  .00000000  00000-0  00000-0 0 18167
2 33401 049.1983 029.4079 6070703 040.7194 250.0536 00.10960265    06

# Worst residual: 51.66 km
# MJD 60287.000000 (2023 Dec  9  0:00)
2008-051A = TR93D0F = IBEX = NORAD 33401
1 33401U 08051A   23343.49919926  .00000000  00000-0  00000-0 0 18168
2 33401 049.1890 029.3792 6075631 040.1494 290.6730 00.10840842    00

# Worst residual: 162.75 km
# MJD 60288.000000 (2023 Dec 10  0:00)
2008-051A = TR93D0F = IBEX = NORAD 33401
1 33401U 08051A   23344.49919926  .00000000  00000-0  00000-0 0 18169
2 33401 049.1555 029.3337 6163144 039.0619 331.6912 00.10411599    07

# Worst residual: 319.03 km
# MJD 60289.000000 (2023 Dec 11  0:00)
2008-051A = TR93D0F = IBEX = NORAD 33401
1 33401U 08051A   23345.49919926  .00000000  00000-0  00000-0 0 18160
2 33401 049.1529 029.2243 6295919 041.2168 008.5733 00.10049794    08

# Worst residual: 142.73 km
# MJD 60290.000000 (2023 Dec 12  0:00)
2008-051A = TR93D0F = IBEX = NORAD 33401
1 33401U 08051A   23346.49919926  .00000000  00000-0  00000-0 0 18161
2 33401 049.1541 029.3366 6114801 042.0563 047.0081 00.10608464    06

# Worst residual: 48.71 km
# MJD 60291.000000 (2023 Dec 13  0:00)
2008-051A = TR93D0F = IBEX = NORAD 33401
1 33401U 08051A   23347.49919926  .00000000  00000-0  00000-0 0 18162
2 33401 049.1093 029.3442 6064889 041.2590 087.8378 00.10878863    07

# Worst residual: 23.59 km
# MJD 60292.000000 (2023 Dec 14  0:00)
2008-051A = TR93D0F = IBEX = NORAD 33401
1 33401U 08051A   23348.49919926  .00000000  00000-0  00000-0 0 18163
2 33401 049.0825 029.3105 6050530 040.9248 128.2816 00.10947928    05

# Worst residual: 15.00 km
# MJD 60293.000000 (2023 Dec 15  0:00)
2008-051A = TR93D0F = IBEX = NORAD 33401
1 33401U 08051A   23349.49919926  .00000000  00000-0  00000-0 0 18164
2 33401 049.0901 029.2880 6047362 040.7497 168.3852 00.10964903    09

# Worst residual: 7.39 km
# MJD 60294.000000 (2023 Dec 16  0:00)
2008-051A = TR93D0F = IBEX = NORAD 33401
1 33401U 08051A   23350.49919926  .00000000  00000-0  00000-0 0 18166
2 33401 049.1066 029.2777 6051473 040.6840 208.1396 00.10967041    08

# Worst residual: 2.36 km
# MJD 60295.000000 (2023 Dec 17  0:00)
2008-051A = TR93D0F = IBEX = NORAD 33401
1 33401U 08051A   23351.49919926  .00000000  00000-0  00000-0 0 18167
2 33401 049.1079 029.2485 6054206 040.7085 247.6305 00.10963513    05

# Worst residual: 8.46 km
# MJD 60296.000000 (2023 Dec 18  0:00)
2008-051A = TR93D0F = IBEX = NORAD 33401
1 33401U 08051A   23352.49919926  .00000000  00000-0  00000-0 0 18168
2 33401 049.0977 029.1794 6051135 040.6961 287.1050 00.10944529    05

# Worst residual: 25.42 km
# MJD 60297.000000 (2023 Dec 19  0:00)
2008-051A = TR93D0F = IBEX = NORAD 33401
1 33401U 08051A   23353.49919926  .00000000  00000-0  00000-0 0 18169
2 33401 049.0970 029.0991 6055326 040.4295 326.7461 00.10860091    07

# Worst residual: 33.52 km
# MJD 60298.000000 (2023 Dec 20  0:00)
2008-051A = TR93D0F = IBEX = NORAD 33401
1 33401U 08051A   23354.49919926  .00000000  00000-0  00000-0 0 18160
2 33401 049.0859 029.0529 6079584 040.5681 005.7085 00.10769783    04

# Worst residual: 10.95 km
# MJD 60299.000000 (2023 Dec 21  0:00)
2008-051A = TR93D0F = IBEX = NORAD 33401
1 33401U 08051A   23355.49919926  .00000000  00000-0  00000-0 0 18161
2 33401 049.0836 029.0147 6062383 040.7329 044.5638 00.10830799    06

# Worst residual: 3.74 km
# MJD 60300.000000 (2023 Dec 22  0:00)
2008-051A = TR93D0F = IBEX = NORAD 33401
1 33401U 08051A   23356.49919926  .00000000  00000-0  00000-0 0 18162
2 33401 049.0515 028.9851 6063478 040.7143 083.5888 00.10852540    08

# Worst residual: 2.96 km
# MJD 60301.000000 (2023 Dec 23  0:00)
2008-051A = TR93D0F = IBEX = NORAD 33401
1 33401U 08051A   23357.49919926  .00000000  00000-0  00000-0 0 18163
2 33401 049.0092 028.9365 6065228 040.8028 122.4909 00.10852221    09

# Worst residual: 3.79 km
# MJD 60302.000000 (2023 Dec 24  0:00)
2008-051A = TR93D0F = IBEX = NORAD 33401
1 33401U 08051A   23358.49919926  .00000000  00000-0  00000-0 0 18164
2 33401 048.9924 028.8909 6065714 040.9260 161.2872 00.10848394    09

# Worst residual: 6.33 km
# MJD 60303.000000 (2023 Dec 25  0:00)
2008-051A = TR93D0F = IBEX = NORAD 33401
1 33401U 08051A   23359.49919926  .00000000  00000-0  00000-0 0 18165
2 33401 049.0044 028.8723 6066709 041.0637 199.9604 00.10848259    04

# Worst residual: 9.79 km
# MJD 60304.000000 (2023 Dec 26  0:00)
2008-051A = TR93D0F = IBEX = NORAD 33401
1 33401U 08051A   23360.49919926  .00000000  00000-0  00000-0 0 18167
2 33401 049.0243 028.8764 6067359 041.2337 238.5201 00.10857711    07

# Worst residual: 11.97 km
# MJD 60305.000000 (2023 Dec 27  0:00)
2008-051A = TR93D0F = IBEX = NORAD 33401
1 33401U 08051A   23361.49919926  .00000000  00000-0  00000-0 0 18168
2 33401 049.0312 028.8689 6063651 041.4461 277.0556 00.10880733    02

# Worst residual: 15.48 km
# MJD 60306.000000 (2023 Dec 28  0:00)
2008-051A = TR93D0F = IBEX = NORAD 33401
1 33401U 08051A   23362.49919926  .00000000  00000-0  00000-0 0 18169
2 33401 049.0297 028.8073 6051573 041.6201 315.7832 00.10910608    07

# Worst residual: 47.40 km
# MJD 60307.000000 (2023 Dec 29  0:00)
2008-051A = TR93D0F = IBEX = NORAD 33401
1 33401U 08051A   23363.49919926  .00000000  00000-0  00000-0 0 18160
2 33401 049.0938 028.6828 6060066 041.4929 355.0287 00.10839255    06

# Worst residual: 43.34 km
# MJD 60308.000000 (2023 Dec 30  0:00)
2008-051A = TR93D0F = IBEX = NORAD 33401
1 33401U 08051A   23364.49919926  .00000000  00000-0  00000-0 0 18161
2 33401 049.1162 028.7656 6077661 041.8877 033.5340 00.10713306    07
